{
  "type": "FeatureCollection",
  "features": [
    {
      "type": "Feature",
      "properties": {
        "norad_id": 43207,
        "name": "BEIDOU-3 M4 (C22)",
        "group": "beidou",
        "lat": -9.809570429336404,
        "lon": -104.16951430700817,
        "alt_km": 21541.106177540998,
        "timestamp": "2025-12-14T05:42:18.725010+00:00",
        "meta_object_name": "BEIDOU-3 M4 (C22)",
        "meta_object_id": "2018-018A",
        "meta_epoch": "2025-12-13T09:57:17.275392",
        "meta_mean_motion": 1.86231174,
        "meta_eccentricity": 0.00041262,
        "meta_inclination": 56.4868,
        "meta_ra_of_asc_node": 69.2813,
        "meta_arg_of_pericenter": 7.8207,
        "meta_mean_anomaly": 352.2039,
        "meta_ephemeris_type": 0,
        "meta_classification_type": "U",
        "meta_norad_cat_id": 43207,
        "meta_element_set_no": 999,
        "meta_rev_at_epoch": 5328,
        "meta_bstar": 0,
        "meta_mean_motion_dot": -7.8e-07,
        "meta_mean_motion_ddot": 0,
        "tle_line1": "1 43207U 18018A   25347.41478328 -.00000078  00000+0  00000+0 0  9996",
        "tle_line2": "2 43207  56.4868  69.2813 0004126   7.8207 352.2039  1.86231174 53286"
      },
      "geometry": {
        "type": "Point",
        "coordinates": [
          -104.16951430700817,
          -9.809570429336404
        ]
      }
    },
    {
      "type": "Feature",
      "properties": {
        "norad_id": 43208,
        "name": "BEIDOU-3 M3 (C21)",
        "group": "beidou",
        "lat": 26.91904696169482,
        "lon": -130.36725628664541,
        "alt_km": 21542.819191563103,
        "timestamp": "2025-12-14T05:42:18.725022+00:00",
        "meta_object_name": "BEIDOU-3 M3 (C21)",
        "meta_object_id": "2018-018B",
        "meta_epoch": "2025-12-10T19:07:00.567840",
        "meta_mean_motion": 1.8623124,
        "meta_eccentricity": 0.0006564,
        "meta_inclination": 56.484,
        "meta_ra_of_asc_node": 69.3721,
        "meta_arg_of_pericenter": 317.0111,
        "meta_mean_anomaly": 42.9593,
        "meta_ephemeris_type": 0,
        "meta_classification_type": "U",
        "meta_norad_cat_id": 43208,
        "meta_element_set_no": 999,
        "meta_rev_at_epoch": 5323,
        "meta_bstar": 0,
        "meta_mean_motion_dot": -5.7e-07,
        "meta_mean_motion_ddot": 0,
        "tle_line1": "1 43208U 18018B   25344.79653435 -.00000057  00000+0  00000+0 0  9996",
        "tle_line2": "2 43208  56.4840  69.3721 0006564 317.0111  42.9593  1.86231240 53231"
      },
      "geometry": {
        "type": "Point",
        "coordinates": [
          -130.36725628664541,
          26.91904696169482
        ]
      }
    },
    {
      "type": "Feature",
      "properties": {
        "norad_id": 43245,
        "name": "BEIDOU-3 M9 (C29)",
        "group": "beidou",
        "lat": 1.7792119947262461,
        "lon": -52.32863054036725,
        "alt_km": 21527.661491618906,
        "timestamp": "2025-12-14T05:42:18.725033+00:00",
        "meta_object_name": "BEIDOU-3 M9 (C29)",
        "meta_object_id": "2018-029A",
        "meta_epoch": "2025-12-13T03:51:10.072800",
        "meta_mean_motion": 1.86228196,
        "meta_eccentricity": 0.00015236,
        "meta_inclination": 54.365,
        "meta_ra_of_asc_node": 306.4524,
        "meta_arg_of_pericenter": 281.5597,
        "meta_mean_anomaly": 78.4131,
        "meta_ephemeris_type": 0,
        "meta_classification_type": "U",
        "meta_norad_cat_id": 43245,
        "meta_element_set_no": 999,
        "meta_rev_at_epoch": 5243,
        "meta_bstar": 0,
        "meta_mean_motion_dot": -9.6e-07,
        "meta_mean_motion_ddot": 0,
        "tle_line1": "1 43245U 18029A   25347.16053325 -.00000096  00000+0  00000+0 0  9998",
        "tle_line2": "2 43245  54.3650 306.4524 0001523 281.5597  78.4131  1.86228196 52436"
      },
      "geometry": {
        "type": "Point",
        "coordinates": [
          -52.32863054036725,
          1.7792119947262461
        ]
      }
    },
    {
      "type": "Feature",
      "properties": {
        "norad_id": 43246,
        "name": "BEIDOU-3 M10 (C30)",
        "group": "beidou",
        "lat": 35.52599228729088,
        "lon": -22.78878130448555,
        "alt_km": 21515.958283483884,
        "timestamp": "2025-12-14T05:42:18.725045+00:00",
        "meta_object_name": "BEIDOU-3 M10 (C30)",
        "meta_object_id": "2018-029B",
        "meta_epoch": "2025-12-13T02:17:56.021856",
        "meta_mean_motion": 1.86228806,
        "meta_eccentricity": 0.00040465,
        "meta_inclination": 54.3625,
        "meta_ra_of_asc_node": 306.4821,
        "meta_arg_of_pericenter": 0.6072,
        "meta_mean_anomaly": 359.3832,
        "meta_ephemeris_type": 0,
        "meta_classification_type": "U",
        "meta_norad_cat_id": 43246,
        "meta_element_set_no": 999,
        "meta_rev_at_epoch": 5241,
        "meta_bstar": 0,
        "meta_mean_motion_dot": -9.6e-07,
        "meta_mean_motion_ddot": 0,
        "tle_line1": "1 43246U 18029B   25347.09578729 -.00000096  00000+0  00000+0 0  9991",
        "tle_line2": "2 43246  54.3625 306.4821 0004046   0.6072 359.3832  1.86228806 52415"
      },
      "geometry": {
        "type": "Point",
        "coordinates": [
          -22.78878130448555,
          35.52599228729088
        ]
      }
    },
    {
      "type": "Feature",
      "properties": {
        "norad_id": 43539,
        "name": "BEIDOU-2 IGSO-7 (C16)",
        "group": "beidou",
        "lat": 48.54632132144486,
        "lon": -67.45343092046858,
        "alt_km": 35984.73761957828,
        "timestamp": "2025-12-14T05:42:18.725056+00:00",
        "meta_object_name": "BEIDOU-2 IGSO-7 (C16)",
        "meta_object_id": "2018-057A",
        "meta_epoch": "2025-12-12T21:40:21.690912",
        "meta_mean_motion": 1.00257087,
        "meta_eccentricity": 0.00924019,
        "meta_inclination": 55.1754,
        "meta_ra_of_asc_node": 164.6693,
        "meta_arg_of_pericenter": 235.1751,
        "meta_mean_anomaly": 117.987,
        "meta_ephemeris_type": 0,
        "meta_classification_type": "U",
        "meta_norad_cat_id": 43539,
        "meta_element_set_no": 999,
        "meta_rev_at_epoch": 2725,
        "meta_bstar": 0,
        "meta_mean_motion_dot": -3.7e-07,
        "meta_mean_motion_ddot": 0,
        "tle_line1": "1 43539U 18057A   25346.90302883 -.00000037  00000+0  00000+0 0  9997",
        "tle_line2": "2 43539  55.1754 164.6693 0092401 235.1751 117.9870  1.00257087 27257"
      },
      "geometry": {
        "type": "Point",
        "coordinates": [
          -67.45343092046858,
          48.54632132144486
        ]
      }
    },
    {
      "type": "Feature",
      "properties": {
        "norad_id": 43581,
        "name": "BEIDOU-3 M5 (C23)",
        "group": "beidou",
        "lat": -51.445160719119734,
        "lon": 74.01435760703848,
        "alt_km": 21534.849256197132,
        "timestamp": "2025-12-14T05:42:18.725068+00:00",
        "meta_object_name": "BEIDOU-3 M5 (C23)",
        "meta_object_id": "2018-062A",
        "meta_epoch": "2025-12-12T05:55:01.607232",
        "meta_mean_motion": 1.86228672,
        "meta_eccentricity": 0.00021016,
        "meta_inclination": 54.0891,
        "meta_ra_of_asc_node": 188.6597,
        "meta_arg_of_pericenter": 354.1416,
        "meta_mean_anomaly": 5.9159,
        "meta_ephemeris_type": 0,
        "meta_classification_type": "U",
        "meta_norad_cat_id": 43581,
        "meta_element_set_no": 999,
        "meta_rev_at_epoch": 5015,
        "meta_bstar": 0,
        "meta_mean_motion_dot": 7.9e-07,
        "meta_mean_motion_ddot": 0,
        "tle_line1": "1 43581U 18062A   25346.24654638  .00000079  00000+0  00000+0 0  9990",
        "tle_line2": "2 43581  54.0891 188.6597 0002101 354.1416   5.9159  1.86228672 50154"
      },
      "geometry": {
        "type": "Point",
        "coordinates": [
          74.01435760703848,
          -51.445160719119734
        ]
      }
    },
    {
      "type": "Feature",
      "properties": {
        "norad_id": 43582,
        "name": "BEIDOU-3 M6 (C24)",
        "group": "beidou",
        "lat": -10.686993795027433,
        "lon": -179.27391121939988,
        "alt_km": 21518.97541928606,
        "timestamp": "2025-12-14T05:42:18.725080+00:00",
        "meta_object_name": "BEIDOU-3 M6 (C24)",
        "meta_object_id": "2018-062B",
        "meta_epoch": "2025-12-13T04:24:17.587296",
        "meta_mean_motion": 1.86229795,
        "meta_eccentricity": 0.00078891,
        "meta_inclination": 54.0888,
        "meta_ra_of_asc_node": 188.6169,
        "meta_arg_of_pericenter": 47.4004,
        "meta_mean_anomaly": 312.7289,
        "meta_ephemeris_type": 0,
        "meta_classification_type": "U",
        "meta_norad_cat_id": 43582,
        "meta_element_set_no": 999,
        "meta_rev_at_epoch": 5017,
        "meta_bstar": 0,
        "meta_mean_motion_dot": 9.2e-07,
        "meta_mean_motion_ddot": 0,
        "tle_line1": "1 43582U 18062B   25347.18353689  .00000092  00000+0  00000+0 0  9992",
        "tle_line2": "2 43582  54.0888 188.6169 0007889  47.4004 312.7289  1.86229795 50171"
      },
      "geometry": {
        "type": "Point",
        "coordinates": [
          -179.27391121939988,
          -10.686993795027433
        ]
      }
    }
  ]
}